[{"OBJECT_NAME":"STARLINK-2516","OBJECT_ID":"2021-036H","EPOCH":"2026-03-09T22:55:20.656416","MEAN_MOTION":15.30221874,"ECCENTRICITY":0.00018919,"INCLINATION":53.1591,"RA_OF_ASC_NODE":74.1373,"ARG_OF_PERICENTER":109.1584,"MEAN_ANOMALY":250.9622,"EPHEMERIS_TYPE":0,"CLASSIFICATION_TYPE":"U","NORAD_CAT_ID":48283,"ELEMENT_SET_NO":999,"REV_AT_EPOCH":26845,"BSTAR":0.001005498,"MEAN_MOTION_DOT":0.0002956,"MEAN_MOTION_DDOT":0},{"OBJECT_NAME":"OBJECT BD","OBJECT_ID":"2025-313BD","EPOCH":"2026-03-09T15:06:44.992224","MEAN_MOTION":15.3000236,"ECCENTRICITY":0.00072867,"INCLINATION":97.397,"RA_OF_ASC_NODE":145.285,"ARG_OF_PERICENTER":333.4514,"MEAN_ANOMALY":26.6352,"EPHEMERIS_TYPE":0,"CLASSIFICATION_TYPE":"U","NORAD_CAT_ID":67299,"ELEMENT_SET_NO":999,"REV_AT_EPOCH":1083,"BSTAR":0.0027633805,"MEAN_MOTION_DOT":0.0008101,"MEAN_MOTION_DDOT":0}]
